[{"OBJECT_NAME":"YAOGAN-31 02A","OBJECT_ID":"2021-007A","EPOCH":"2026-03-09T23:16:07.879296","MEAN_MOTION":13.45440613,"ECCENTRICITY":0.01673107,"INCLINATION":63.4052,"RA_OF_ASC_NODE":38.0901,"ARG_OF_PERICENTER":0.1228,"MEAN_ANOMALY":359.9811,"EPHEMERIS_TYPE":0,"CLASSIFICATION_TYPE":"U","NORAD_CAT_ID":47532,"ELEMENT_SET_NO":999,"REV_AT_EPOCH":25088,"BSTAR":0.00018194292,"MEAN_MOTION_DOT":2.7e-7,"MEAN_MOTION_DDOT":0},{"OBJECT_NAME":"FENGYUN 1C DEB","OBJECT_ID":"1999-025DFA","EPOCH":"2026-03-08T02:39:49.474656","MEAN_MOTION":14.042091,"ECCENTRICITY":0.04530669,"INCLINATION":99.0254,"RA_OF_ASC_NODE":189.3543,"ARG_OF_PERICENTER":213.8894,"MEAN_ANOMALY":143.2554,"EPHEMERIS_TYPE":0,"CLASSIFICATION_TYPE":"U","NORAD_CAT_ID":33665,"ELEMENT_SET_NO":999,"REV_AT_EPOCH":93789,"BSTAR":0.0025670733,"MEAN_MOTION_DOT":0.00010255,"MEAN_MOTION_DDOT":0}]
